[{"OBJECT_NAME":"STARLINK-3994","OBJECT_ID":"2022-052AM","EPOCH":"2026-03-09T19:54:45.215136","MEAN_MOTION":15.0884377,"ECCENTRICITY":0.00011833,"INCLINATION":53.2152,"RA_OF_ASC_NODE":268.4972,"ARG_OF_PERICENTER":85.3433,"MEAN_ANOMALY":274.7694,"EPHEMERIS_TYPE":0,"CLASSIFICATION_TYPE":"U","NORAD_CAT_ID":52633,"ELEMENT_SET_NO":999,"REV_AT_EPOCH":21102,"BSTAR":6.0296058e-5,"MEAN_MOTION_DOT":6.72e-6,"MEAN_MOTION_DDOT":0},{"OBJECT_NAME":"FENGYUN 1C DEB","OBJECT_ID":"1999-025DEQ","EPOCH":"2026-03-08T16:18:11.400768","MEAN_MOTION":15.03063896,"ECCENTRICITY":0.0041192,"INCLINATION":98.802,"RA_OF_ASC_NODE":149.1421,"ARG_OF_PERICENTER":81.4798,"MEAN_ANOMALY":279.1089,"EPHEMERIS_TYPE":0,"CLASSIFICATION_TYPE":"U","NORAD_CAT_ID":33655,"ELEMENT_SET_NO":999,"REV_AT_EPOCH":97846,"BSTAR":0.0032042236,"MEAN_MOTION_DOT":0.0004416,"MEAN_MOTION_DDOT":0}]
